     3.02           N: GNSS NAV DATA    G: GPS              RINEX VERSION / TYPE
GNSS-SDR            suhjw               20250805 123118 UTC PGM / RUN BY / DATE 
GPS NAVIGATION MESSAGE FILE GENERATED BY GNSS-SDR           COMMENT             
GNSS-SDR VERSION 0.0.20                                     COMMENT             
See https://gnss-sdr.org                                    COMMENT             
GPSA    .1211D-07   .2235D-07  -.5960D-07  -.1192D-06       IONOSPHERIC CORR    
GPSB    .1065D+06   .1311D+06  -.6554D+05  -.3277D+06       IONOSPHERIC CORR    
GPUT  -.9313225746D-09 -.355271368D-14 405504 2378          TIME SYSTEM CORR    
    18    18   137     7                                    LEAP SECONDS        
                                                            END OF HEADER       
G31 2025 08 05 16 00 00 -.197510700673D-03  .147792889038D-11  .000000000000D+00
      .169000000000D+03  .309375000000D+01  .474984070707D-08  .263575057332D+01
     -.651925802231D-07  .106733400607D-01  .713951885700D-05  .515369892120D+04
      .230400000000D+06  .372529029846D-08 -.258131568417D+01 -.135973095894D-06
      .954559605811D+00  .238000000000D+03  .849410399775D+00 -.783139763772D-08
      .226438003480D-09  .100000000000D+01  .237800000000D+04  .100000000000D+01
      .000000000000D+00  .000000000000D+00 -.135041773319D-07  .169000000000D+03
      .223218000000D+06  .000000000000D+00                                      
G04 2025 08 05 16 00 00  .597345642745D-03  .386535248253D-11  .000000000000D+00
      .172000000000D+03 -.899062500000D+02  .412517182996D-08 -.111607919135D+00
     -.486150383949D-05  .338263635058D-02  .974349677563D-05  .515360062599D+04
      .230400000000D+06 -.130385160446D-07  .266878599335D+01  .614672899246D-07
      .968824073811D+00  .194125000000D+03 -.293470840705D+01 -.772032158238D-08
      .939324840936D-10  .100000000000D+01  .237800000000D+04  .100000000000D+01
      .000000000000D+00  .000000000000D+00 -.465661287308D-08  .684000000000D+03
      .223218000000D+06  .000000000000D+00                                      
G27 2025 08 05 16 00 00 -.234963372350D-04 -.113686837722D-12  .000000000000D+00
      .380000000000D+02  .745000000000D+02  .440661212451D-08  .203292945041D+00
      .391528010368D-05  .134509316413D-01  .895000994205D-05  .515365872192D+04
      .230400000000D+06 -.558793544769D-07 -.522297361724D+00  .234693288803D-06
      .955810045279D+00  .209000000000D+03  .850213764165D+00 -.804569227824D-08
     -.210365905441D-09  .100000000000D+01  .237800000000D+04  .100000000000D+01
      .000000000000D+00  .000000000000D+00  .232830643654D-08  .380000000000D+02
      .223218000000D+06  .000000000000D+00                                      
G28 2025 08 05 16 00 00 -.635607168078D-03 -.170530256582D-11  .000000000000D+00
      .129000000000D+03  .400000000000D+01  .462126392276D-08 -.256208242954D+01
      .217929482460D-06  .353961717337D-03  .736676156521D-05  .515364825439D+04
      .230400000000D+06  .167638063431D-07 -.263274432201D+01  .242143869400D-07
      .961758627142D+00  .238625000000D+03  .237789082927D+00 -.791032949697D-08
      .278225874939D-09  .100000000000D+01  .237800000000D+04  .100000000000D+01
      .000000000000D+00  .000000000000D+00 -.931322574615D-08  .641000000000D+03
      .223218000000D+06  .000000000000D+00                                      
G09 2025 08 05 16 00 00  .719505362213D-03  .682121026330D-11  .000000000000D+00
      .890000000000D+02 -.992812500000D+02  .421767568312D-08  .701705575368D+00
     -.528432428837D-05  .333955744281D-02  .951252877712D-05  .515367322922D+04
      .230400000000D+06 -.577419996262D-07  .260605224790D+01 -.167638063431D-07
      .962773931787D+00  .197968750000D+03  .199839773582D+01 -.777710966212D-08
      .114647632677D-09  .100000000000D+01  .237800000000D+04  .100000000000D+01
      .000000000000D+00  .000000000000D+00  .465661287308D-09  .890000000000D+02
      .223218000000D+06  .000000000000D+00                                      
G18 2025 08 05 16 00 00 -.580979511142D-03  .750333128963D-11  .000000000000D+00
      .670000000000D+02  .732187500000D+02  .427946397114D-08 -.189659640611D+01
      .355392694473D-05  .545232312288D-02  .331923365593D-05  .515368502045D+04
      .230400000000D+06  .670552253723D-07  .556876953235D+00 -.763684511185D-07
      .973434261181D+00  .324000000000D+03 -.293747866187D+01 -.806319300721D-08
      .295012288446D-09  .100000000000D+01  .237800000000D+04  .100000000000D+01
      .000000000000D+00  .000000000000D+00 -.838190317154D-08  .579000000000D+03
      .223218000000D+06  .000000000000D+00                                      
G29 2025 08 05 16 00 00 -.473129097372D-03  .500222085975D-11  .000000000000D+00
      .870000000000D+02  .759687500000D+02  .409981363084D-08  .146209606560D-01
      .401400029659D-05  .334389356431D-02  .854954123497D-05  .515361630058D+04
      .230400000000D+06  .428408384323D-07 -.434923258425D+00 -.279396772385D-07
      .965133532337D+00  .214437500000D+03  .275596533837D+01 -.782532595624D-08
     -.864321716755D-10  .100000000000D+01  .237800000000D+04  .100000000000D+01
      .000000000000D+00  .000000000000D+00 -.977888703346D-08  .870000000000D+02
      .223218000000D+06  .000000000000D+00                                      
G08 2025 08 05 15 59 44  .531825236976D-03  .454747350886D-12  .000000000000D+00
      .360000000000D+02  .798750000000D+02  .454518932538D-08  .104494766706D+00
      .426359474659D-05  .105661397101D-01  .888481736183D-05  .515360392380D+04
      .230384000000D+06  .128522515297D-06 -.552499500039D+00  .115483999252D-06
      .946699199216D+00  .201812500000D+03  .458782289278D+00 -.809962309610D-08
     -.202151277555D-09  .100000000000D+01  .237800000000D+04  .100000000000D+01
      .000000000000D+00  .000000000000D+00  .465661287308D-08  .360000000000D+02
      .225048000000D+06  .000000000000D+00                                      
G07 2025 08 05 16 00 00 -.566304661334D-04 -.511590769747D-11  .000000000000D+00
      .170000000000D+03  .537500000000D+01  .469340978507D-08 -.271519670954D+01
      .221654772758D-06  .197960310616D-01  .723823904991D-05  .515369508553D+04
      .230400000000D+06  .236555933952D-06 -.260464151357D+01 -.132247805595D-06
      .950735627189D+00  .231062500000D+03 -.203179290936D+01 -.761496005079D-08
      .387516141603D-09  .100000000000D+01  .237800000000D+04  .100000000000D+01
      .000000000000D+00  .000000000000D+00 -.107102096081D-07  .170000000000D+03
      .228096000000D+06  .000000000000D+00                                      
G02 2025 08 05 16 00 00 -.104887876660D-03  .909494701773D-11  .000000000000D+00
      .850000000000D+02  .800937500000D+02  .460912055980D-08  .491972288552D+00
      .401958823204D-05  .164697970031D-01  .353902578354D-05  .515367767143D+04
      .230400000000D+06 -.409781932831D-07  .450795618224D+00 -.283122062683D-06
      .965354026276D+00  .316562500000D+03 -.950155606503D+00 -.850714007082D-08
      .239652839646D-09  .100000000000D+01  .237800000000D+04  .100000000000D+01
      .000000000000D+00  .000000000000D+00 -.176951289177D-07  .850000000000D+02
      .228198000000D+06  .000000000000D+00                                      
G27 2025 08 05 18 00 00 -.234968028963D-04 -.113686837722D-12  .000000000000D+00
      .410000000000D+02  .682500000000D+02  .430875090534D-08  .125340383225D+01
      .355765223503D-05  .134514953243D-01  .916421413422D-05  .515366086388D+04
      .237600000000D+06 -.180676579475D-06 -.522354497453D+00  .633299350739D-07
      .955807916733D+00  .201375000000D+03  .850291212511D+00 -.800854787388D-08
     -.340371320689D-09  .100000000000D+01  .237800000000D+04  .100000000000D+01
      .000000000000D+00  .000000000000D+00  .232830643654D-08  .410000000000D+02
      .230418000000D+06  .000000000000D+00                                      
G08 2025 08 05 18 00 00  .531828496605D-03  .454747350886D-12  .000000000000D+00
      .410000000000D+02  .714375000000D+02  .449804450447D-08  .115708661083D+01
      .379793345928D-05  .105651598424D-01  .883638858795D-05  .515360202408D+04
      .237600000000D+06 -.108033418655D-06 -.552556476309D+00  .987201929092D-07
      .946697429085D+00  .202406250000D+03  .458748198898D+00 -.798390399022D-08
     -.373586989969D-09  .100000000000D+01  .237800000000D+04  .100000000000D+01
      .000000000000D+00  .000000000000D+00  .465661287308D-08  .410000000000D+02
      .230418000000D+06  .000000000000D+00                                      
G16 2025 08 05 18 00 00  .752652995288D-04  .807176547823D-11  .000000000000D+00
      .700000000000D+02  .487500000000D+01  .456197573889D-08  .214225675487D+01
     -.186264514923D-07  .144860453438D-01  .716745853424D-05  .515377265167D+04
      .237600000000D+06 -.115483999252D-06 -.147023252630D+01 -.249594449997D-06
      .958760266819D+00  .242843750000D+03  .889308485554D+00 -.785425573271D-08
     -.423946230491D-09  .100000000000D+01  .237800000000D+04  .100000000000D+01
      .000000000000D+00  .000000000000D+00 -.102445483208D-07  .700000000000D+02
      .230418000000D+06  .000000000000D+00                                      
G09 2025 08 05 18 00 00  .719554256648D-03  .682121026330D-11  .000000000000D+00
      .940000000000D+02 -.982812500000D+02  .428696428356D-08  .175206373669D+01
     -.519491732121D-05  .333920912817D-02  .952184200287D-05  .515367195892D+04
      .237600000000D+06 -.130385160446D-07  .260599635857D+01 -.391155481339D-07
      .962774884147D+00  .192750000000D+03  .199821940026D+01 -.775175146299D-08
      .120362156424D-09  .100000000000D+01  .237800000000D+04  .100000000000D+01
      .000000000000D+00  .000000000000D+00  .465661287308D-09  .940000000000D+02
      .230418000000D+06  .000000000000D+00                                      
